{"type": "FeatureCollection", "features": [ {"type": "Feature", "properties": {"norad_id": 38779, "name": "GSAT-10 (GAGAN/PRN 128)", "group": "gnss", "lat": 0.029453261175789745, "lon": 62.05718347829763, "alt_km": 35783.893700323766, "timestamp": "2025-12-02T17:49:12.269756+00:00", "meta": {"OBJECT_NAME": "GSAT-10 (GAGAN/PRN 128)", "OBJECT_ID": "2012-051B", "EPOCH": "2025-12-02T03:54:21.802176", "MEAN_MOTION": 1.00269269, "ECCENTRICITY": 0.00026059, "INCLINATION": 0.0354, "RA_OF_ASC_NODE": 262.0904, "ARG_OF_PERICENTER": 234.6575, "MEAN_ANOMALY": 76.0892, "EPHEMERIS_TYPE": 0, "CLASSIFICATION_TYPE": "U", "NORAD_CAT_ID": 38779, "ELEMENT_SET_NO": 999, "REV_AT_EPOCH": 4812, "BSTAR": 0, "MEAN_MOTION_DOT": -1.43e-06, "MEAN_MOTION_DDOT": 0}, "tle": {"line1": "1 38779U 12051B   25336.16275234 -.00000143  00000+0  00000+0 0  9999", "line2": "2 38779   0.0354 262.0904 0002605 234.6575  76.0892  1.00269269 48128"}}, "geometry": {"type": "Point", "coordinates": [62.05718347829763, 0.029453261175789745]}}, {"type": "Feature", "properties": {"norad_id": 38833, "name": "GPS BIIF-3  (PRN 24)", "group": "gnss", "lat": -52.792127538417816, "lon": 48.47689258517358, "alt_km": 20629.984331915726, "timestamp": "2025-12-02T17:49:12.269768+00:00", "meta": {"OBJECT_NAME": "GPS BIIF-3  (PRN 24)", "OBJECT_ID": "2012-053A", "EPOCH": "2025-12-01T21:10:58.228896", "MEAN_MOTION": 2.00564835, "ECCENTRICITY": 0.01754817, "INCLINATION": 53.5559, "RA_OF_ASC_NODE": 151.6834, "ARG_OF_PERICENTER": 63.8436, "MEAN_ANOMALY": 297.9871, "EPHEMERIS_TYPE": 0, "CLASSIFICATION_TYPE": "U", "NORAD_CAT_ID": 38833, "ELEMENT_SET_NO": 999, "REV_AT_EPOCH": 9548, "BSTAR": 0, "MEAN_MOTION_DOT": 1.16e-06, "MEAN_MOTION_DDOT": 0}, "tle": {"line1": "1 38833U 12053A   25335.88261839  .00000116  00000+0  00000+0 0  9995", "line2": "2 38833  53.5559 151.6834 0175481  63.8436 297.9871  2.00564835 95485"}}, "geometry": {"type": "Point", "coordinates": [48.47689258517358, -52.792127538417816]}}, {"type": "Feature", "properties": {"norad_id": 38857, "name": "GSAT0103 (GALILEO-FM3)", "group": "gnss", "lat": -32.79351579328209, "lon": -46.9874857861029, "alt_km": 23221.753894682777, "timestamp": "2025-12-02T17:49:12.269779+00:00", "meta": {"OBJECT_NAME": "GSAT0103 (GALILEO-FM3)", "OBJECT_ID": "2012-055A", "EPOCH": "2025-11-28T20:42:38.723616", "MEAN_MOTION": 1.70473322, "ECCENTRICITY": 0.00022412, "INCLINATION": 55.6842, "RA_OF_ASC_NODE": 107.0477, "ARG_OF_PERICENTER": 266.7022, "MEAN_ANOMALY": 93.2527, "EPHEMERIS_TYPE": 0, "CLASSIFICATION_TYPE": "U", "NORAD_CAT_ID": 38857, "ELEMENT_SET_NO": 999, "REV_AT_EPOCH": 8159, "BSTAR": 0, "MEAN_MOTION_DOT": 5.5e-07, "MEAN_MOTION_DDOT": 0}, "tle": {"line1": "1 38857U 12055A   25332.86294819  .00000055  00000+0  00000+0 0  9994", "line2": "2 38857  55.6842 107.0477 0002241 266.7022  93.2527  1.70473322 81593"}}, "geometry": {"type": "Point", "coordinates": [-46.9874857861029, -32.79351579328209]}}, {"type": "Feature", "properties": {"norad_id": 38953, "name": "BEIDOU-2 G6 (C02)", "group": "gnss", "lat": -0.8141421567739587, "lon": 63.2684792123601, "alt_km": 35769.56596978045, "timestamp": "2025-12-02T17:49:12.269793+00:00", "meta": {"OBJECT_NAME": "BEIDOU-2 G6 (C02)", "OBJECT_ID": "2012-059A", "EPOCH": "2025-12-02T03:54:44.266176", "MEAN_MOTION": 1.0027097, "ECCENTRICITY": 0.00072922, "INCLINATION": 3.9201, "RA_OF_ASC_NODE": 75.6056, "ARG_OF_PERICENTER": 290.7249, "MEAN_ANOMALY": 207.6781, "EPHEMERIS_TYPE": 0, "CLASSIFICATION_TYPE": "U", "NORAD_CAT_ID": 38953, "ELEMENT_SET_NO": 999, "REV_AT_EPOCH": 4793, "BSTAR": 0, "MEAN_MOTION_DOT": -1.56e-06, "MEAN_MOTION_DDOT": 0}, "tle": {"line1": "1 38953U 12059A   25336.16301234 -.00000156  00000+0  00000+0 0  9995", "line2": "2 38953   3.9201  75.6056 0007292 290.7249 207.6781  1.00270970 47937"}}, "geometry": {"type": "Point", "coordinates": [63.2684792123601, -0.8141421567739587]}}, {"type": "Feature", "properties": {"norad_id": 38977, "name": "LUCH 5B (SDCM/PRN 125)", "group": "gnss", "lat": -10.060993490872763, "lon": -37.13996990664262, "alt_km": 35783.86185614311, "timestamp": "2025-12-02T17:49:12.269806+00:00", "meta": {"OBJECT_NAME": "LUCH 5B (SDCM/PRN 125)", "OBJECT_ID": "2012-061A", "EPOCH": "2025-12-02T00:00:34.725024", "MEAN_MOTION": 1.00269053, "ECCENTRICITY": 0.00075983, "INCLINATION": 10.0566, "RA_OF_ASC_NODE": 51.8026, "ARG_OF_PERICENTER": 188.6335, "MEAN_ANOMALY": 174.4538, "EPHEMERIS_TYPE": 0, "CLASSIFICATION_TYPE": "U", "NORAD_CAT_ID": 38977, "ELEMENT_SET_NO": 999, "REV_AT_EPOCH": 4763, "BSTAR": 0, "MEAN_MOTION_DOT": -1.23e-06, "MEAN_MOTION_DDOT": 0}, "tle": {"line1": "1 38977U 12061A   25336.00040191 -.00000123  00000+0  00000+0 0  9993", "line2": "2 38977  10.0566  51.8026 0007598 188.6335 174.4538  1.00269053 47637"}}, "geometry": {"type": "Point", "coordinates": [-37.13996990664262, -10.060993490872763]}}, {"type": "Feature", "properties": {"norad_id": 39155, "name": "COSMOS 2485 (747)", "group": "gnss", "lat": -11.99390485263445, "lon": 74.60086429053518, "alt_km": 19161.642228985507, "timestamp": "2025-12-02T17:49:12.269817+00:00", "meta": {"OBJECT_NAME": "COSMOS 2485 (747)", "OBJECT_ID": "2013-019A", "EPOCH": "2025-11-24T07:30:54.982368", "MEAN_MOTION": 2.13103115, "ECCENTRICITY": 0.0024274, "INCLINATION": 65.3036, "RA_OF_ASC_NODE": 80.4871, "ARG_OF_PERICENTER": 228.0776, "MEAN_ANOMALY": 131.7167, "EPHEMERIS_TYPE": 0, "CLASSIFICATION_TYPE": "U", "NORAD_CAT_ID": 39155, "ELEMENT_SET_NO": 999, "REV_AT_EPOCH": 9791, "BSTAR": 0, "MEAN_MOTION_DOT": 1.2e-07, "MEAN_MOTION_DDOT": 0}, "tle": {"line1": "1 39155U 13019A   25328.31313637  .00000012  00000+0  00000+0 0  9995", "line2": "2 39155  65.3036  80.4871 0024274 228.0776 131.7167  2.13103115 97916"}}, "geometry": {"type": "Point", "coordinates": [74.60086429053518, -11.99390485263445]}}, {"type": "Feature", "properties": {"norad_id": 39166, "name": "GPS BIIF-4  (PRN 27)", "group": "gnss", "lat": -0.6768409538544725, "lon": -83.52678374275162, "alt_km": 19942.440401574622, "timestamp": "2025-12-02T17:49:12.269828+00:00", "meta": {"OBJECT_NAME": "GPS BIIF-4  (PRN 27)", "OBJECT_ID": "2013-023A", "EPOCH": "2025-12-01T17:54:55.988640", "MEAN_MOTION": 2.00565053, "ECCENTRICITY": 0.0137237, "INCLINATION": 54.6617, "RA_OF_ASC_NODE": 277.0152, "ARG_OF_PERICENTER": 48.4926, "MEAN_ANOMALY": 312.6731, "EPHEMERIS_TYPE": 0, "CLASSIFICATION_TYPE": "U", "NORAD_CAT_ID": 39166, "ELEMENT_SET_NO": 999, "REV_AT_EPOCH": 9192, "BSTAR": 0, "MEAN_MOTION_DOT": -4e-07, "MEAN_MOTION_DDOT": 0}, "tle": {"line1": "1 39166U 13023A   25335.74648135 -.00000040  00000+0  00000+0 0  9993", "line2": "2 39166  54.6617 277.0152 0137237  48.4926 312.6731  2.00565053 91926"}}, "geometry": {"type": "Point", "coordinates": [-83.52678374275162, -0.6768409538544725]}}, {"type": "Feature", "properties": {"norad_id": 39199, "name": "IRNSS-1A", "group": "gnss", "lat": -17.945416490499667, "lon": 39.46331904161327, "alt_km": 35859.30378284967, "timestamp": "2025-12-02T17:49:12.269839+00:00", "meta": {"OBJECT_NAME": "IRNSS-1A", "OBJECT_ID": "2013-034A", "EPOCH": "2025-11-29T20:16:50.456352", "MEAN_MOTION": 1.00278191, "ECCENTRICITY": 0.00217208, "INCLINATION": 35.2795, "RA_OF_ASC_NODE": 66.7394, "ARG_OF_PERICENTER": 185.4975, "MEAN_ANOMALY": 176.0627, "EPHEMERIS_TYPE": 0, "CLASSIFICATION_TYPE": "U", "NORAD_CAT_ID": 39199, "ELEMENT_SET_NO": 999, "REV_AT_EPOCH": 4537, "BSTAR": 0, "MEAN_MOTION_DOT": 8.1e-07, "MEAN_MOTION_DDOT": 0}, "tle": {"line1": "1 39199U 13034A   25333.84502843  .00000081  00000+0  00000+0 0  9999", "line2": "2 39199  35.2795  66.7394 0021720 185.4975 176.0627  1.00278191 45377"}}, "geometry": {"type": "Point", "coordinates": [39.46331904161327, -17.945416490499667]}}, {"type": "Feature", "properties": {"norad_id": 39533, "name": "GPS BIIF-5  (PRN 30)", "group": "gnss", "lat": 2.4649376434714036, "lon": 159.14699810737352, "alt_km": 20332.95782020363, "timestamp": "2025-12-02T17:49:12.269851+00:00", "meta": {"OBJECT_NAME": "GPS BIIF-5  (PRN 30)", "OBJECT_ID": "2014-008A", "EPOCH": "2025-12-01T17:47:12.744672", "MEAN_MOTION": 2.00573724, "ECCENTRICITY": 0.00789385, "INCLINATION": 53.6295, "RA_OF_ASC_NODE": 157.3734, "ARG_OF_PERICENTER": 226.3523, "MEAN_ANOMALY": 133.0366, "EPHEMERIS_TYPE": 0, "CLASSIFICATION_TYPE": "U", "NORAD_CAT_ID": 39533, "ELEMENT_SET_NO": 999, "REV_AT_EPOCH": 8572, "BSTAR": 0, "MEAN_MOTION_DOT": 1.22e-06, "MEAN_MOTION_DDOT": 0}, "tle": {"line1": "1 39533U 14008A   25335.74111973  .00000122  00000+0  00000+0 0  9990", "line2": "2 39533  53.6295 157.3734 0078938 226.3523 133.0366  2.00573724 85727"}}, "geometry": {"type": "Point", "coordinates": [159.14699810737352, 2.4649376434714036]}}, {"type": "Feature", "properties": {"norad_id": 39617, "name": "ASTRA 5B (EGNOS/PRN 123)", "group": "gnss", "lat": -0.0442098236118361, "lon": 2.7023132617623977, "alt_km": 35788.43963379602, "timestamp": "2025-12-02T17:49:12.269862+00:00", "meta": {"OBJECT_NAME": "ASTRA 5B (EGNOS/PRN 123)", "OBJECT_ID": "2014-011B", "EPOCH": "2025-12-02T07:02:48.748992", "MEAN_MOTION": 1.0027336, "ECCENTRICITY": 0.000477, "INCLINATION": 0.0835, "RA_OF_ASC_NODE": 54.9378, "ARG_OF_PERICENTER": 209.7898, "MEAN_ANOMALY": 295.9047, "EPHEMERIS_TYPE": 0, "CLASSIFICATION_TYPE": "U", "NORAD_CAT_ID": 39617, "ELEMENT_SET_NO": 999, "REV_AT_EPOCH": 4269, "BSTAR": 0, "MEAN_MOTION_DOT": 1.58e-06, "MEAN_MOTION_DDOT": 0}, "tle": {"line1": "1 39617U 14011B   25336.29361978  .00000158  00000+0  00000+0 0  9999", "line2": "2 39617   0.0835  54.9378 0004770 209.7898 295.9047  1.00273360 42690"}}, "geometry": {"type": "Point", "coordinates": [2.7023132617623977, -0.0442098236118361]}}]}